[{"OBJECT_NAME":"STARLINK-32421","OBJECT_ID":"2024-191H","EPOCH":"2026-03-08T07:22:07.360896","MEAN_MOTION":15.27576324,"ECCENTRICITY":4.027e-5,"INCLINATION":42.9973,"RA_OF_ASC_NODE":162.4259,"ARG_OF_PERICENTER":213.4244,"MEAN_ANOMALY":146.6582,"EPHEMERIS_TYPE":0,"CLASSIFICATION_TYPE":"U","NORAD_CAT_ID":61628,"ELEMENT_SET_NO":999,"REV_AT_EPOCH":7732,"BSTAR":-5.7061772e-5,"MEAN_MOTION_DOT":-1.831e-5,"MEAN_MOTION_DDOT":0},{"OBJECT_NAME":"CZ-6A DEB","OBJECT_ID":"2022-151AJB","EPOCH":"2026-02-27T14:06:27.470880","MEAN_MOTION":15.13235807,"ECCENTRICITY":0.00651829,"INCLINATION":98.7617,"RA_OF_ASC_NODE":191.4844,"ARG_OF_PERICENTER":85.1472,"MEAN_ANOMALY":275.7194,"EPHEMERIS_TYPE":0,"CLASSIFICATION_TYPE":"U","NORAD_CAT_ID":58433,"ELEMENT_SET_NO":999,"REV_AT_EPOCH":15167,"BSTAR":0.0027921214,"MEAN_MOTION_DOT":0.00052525,"MEAN_MOTION_DDOT":0}]
